SPACEBEE-1
1 43142U 18004AH  19089.91949837  .00003233  00000-0  13145-3 0  9992
2 43142  97.4997 158.6977 0009452 166.8847 193.2638 15.25240948 67391
CICERO 7
1 43143U 18004AJ  19090.85160934  .00001321  00000-0  57520-4 0  9993
2 43143  97.4953 159.1699 0007937 168.1640 191.9785 15.23990347 67529
TYVAK-61C
1 43144U 18004AK  19090.50210687  .00001673  00000-0  71196-4 0  9992
2 43144  97.4968 159.0564 0008379 175.1657 184.9663 15.24400659 67488
LKW-3
1 43146U 18006A   19090.85753449  .00000728  00000-0  33467-4 0  9991
2 43146  97.3729 209.0939 0007466 138.6814 336.1634 15.23443200 67387
ASNARO-2
1 43152U 18007A   19090.76702726 -.00000470  00000-0 -17389-4 0  9992
2 43152  97.4159  95.5317 0001973  85.3387  30.5420 15.22394472 66607
XIAOXIANG-2
1 43155U 18008A   19090.81902153  .00001070  00000-0  67731-4 0  9999
2 43155  97.4927 165.0002 0016441 232.1695 266.6251 15.11001789 65918
ZHOU ENLAI
1 43156U 18008B   19090.83179428  .00000415  00000-0  29030-4 0  9995
2 43156  97.4961 164.9193 0013432 230.0391 223.9505 15.10492014 65892
KIPP
1 43157U 18008C   19090.85485361  .00000349  00000-0  25187-4 0  9999
2 43157  97.4996 164.8884 0014326 223.6853 271.4064 15.10218994 65881
QUANTUTONG 1
1 43158U 18008D   19090.79727390  .00000395  00000-0  28055-4 0  9992
2 43158  97.4939 164.4582 0012644 228.4731 265.3676 15.10112022 65852
JILIN-01-07
1 43159U 18008E   19090.85493348  .00000244  00000-0  19001-4 0  9997
2 43159  97.4913 164.2743 0012366 225.4804 197.8109 15.09723289 65863
JILIN-01-08
1 43160U 18008F   19090.82383301  .00000553  00000-0  38133-4 0  9993
2 43160  97.4905 164.1735 0008371 238.6113 259.4652 15.09725517 65859
SBIRS GEO-4 (USA 282)
1 43162U 18009A   19089.94275719 -.00000312  00000-0  00000+0 0  9991
2 43162   5.7821 318.6259 0002016  60.9807 286.7829  1.00271992  4416
DOVE PIONEER
1 43163U 18010A   19090.36675484  .00076862  62189-6  30870-3 0  9991
2 43163  82.9042  63.0146 0094046  29.5398 331.1135 15.79542843 67887
LEMUR-2-MARSHALL
1 43165U 18010C   19089.91993147  .00001674  00000-0  76463-4 0  9997
2 43165  82.9149  92.9649 0032384 157.9529 202.3109 15.19349809 65840
LEMUR-2-TALLHAMN-ATC
1 43167U 18010E   19090.50705110  .00000948  00000-0  45353-4 0  9994
2 43167  82.9181  93.7376 0025433 164.0488 196.1553 15.17401410 65853
WEINA 1A
1 43169U 18011A   19090.57756707  .00000114  00000-0  14473-4 0  9996
2 43169  34.9991 134.8951 0003716 356.7044   3.3631 14.89610861 64186
YAOGAN-30 K
1 43170U 18011B   19090.54043772  .00000137  00000-0  16780-4 0  9994
2 43170  34.9981 135.4845 0006435 266.4097  93.5873 14.89616597 64172
YAOGAN-30 L
1 43171U 18011C   19090.60137360  .00000138  00000-0  16969-4 0  9999
2 43171  34.9976 135.0145 0003361 310.1183  49.9226 14.89639725 64180
YAOGAN-30 M
1 43172U 18011D   19090.26022430  .00000110  00000-0  14067-4 0  9990
2 43172  34.9985 137.0147 0004549 352.2482   7.8157 14.89619908 64135
AL YAH 3
1 43174U 18012A   19090.35287819 -.00000172  00000-0  00000+0 0  9993
2 43174   0.0268 264.7538 0001923 114.0722 276.5341  1.00271559  4422
SES-14
1 43175U 18012B   19090.47986863 -.00000294  00000-0  00000+0 0  9997
2 43175   0.0191 189.2218 0000763 198.5625 286.0282  1.00269635  4640
KANOPUS-V 3
1 43180U 18014A   19090.80678579  .00001838  00000-0  91126-4 0  9992
2 43180  97.4625   0.0631 0002064  58.7963  26.3834 15.18990027 64313
KANOPUS-V 4
1 43181U 18014B   19090.90928422  .00000163  00000-0  10991-4 0  9990
2 43181  97.4476   0.3961 0001790  84.5219 344.7030 15.18980190 64341
LEMUR-2-JIN-LUEN
1 43182U 18014C   19089.75460269  .00000864  00000-0  81715-4 0  9992
2 43182  97.7082 358.6784 0012639 277.6262  82.3523 14.96173526 63159
LEMUR-2-URAMCHANSOL
1 43183U 18014D   19090.21221818  .00000581  00000-0  56590-4 0  9990
2 43183  97.7079 359.1503 0012601 276.1237  83.8548 14.96217851 63227
LEMUR-2-KADI
1 43184U 18014E   19090.47318473  .00000401  00000-0  40676-4 0  9992
2 43184  97.7079 359.4246 0012629 276.3479  83.6304 14.96244967 63265
LEMUR-2-THENICKMOLO
1 43185U 18014F   19090.73514742  .00000236  00000-0  26020-4 0  9992
2 43185  97.7081 359.6956 0012442 276.4647  83.5158 14.96228573 63306
S-NET D
1 43186U 18014G   19090.73231728 -.00000167  00000-0 -95161-5 0  9991
2 43186  97.7139   0.3154 0009743 270.8924  89.1181 14.96600919 63325
S-NET B
1 43187U 18014H   19090.73214888 -.00000154  00000-0 -84236-5 0  9997
2 43187  97.7137   0.3056 0009744 270.7943  89.2162 14.96600895 63329
S-NET A
1 43188U 18014J   19090.79878653 -.00000180  00000-0 -10692-4 0  9993
2 43188  97.7139   0.3854 0009742 270.6287  89.3818 14.96601045 63334
S-NET C
1 43189U 18014K   19090.73224818 -.00000151  00000-0 -81408-5 0  9998
2 43189  97.7136   0.3035 0009741 270.7840  89.2265 14.96600481 61873
FENGMANIU-1 (FMN-1)
1 43192U 18015A   19090.87646002  .00002025  00000-0  86498-4 0  9994
2 43192  97.3862 219.7011 0015661 206.0077 154.0376 15.23921505 64311
ZHANGZHENG-1 (CSES)
1 43194U 18015C   19090.55620097  .00000887  00000-0  43034-4 0  9990
2 43194  97.3801 217.8372 0014181 220.6193 139.3986 15.20981868 64196
NUSAT-4 (ADA)
1 43195U 18015D   19090.84144204  .00001091  00000-0  48419-4 0  9994
2 43195  97.3820 219.5524 0016902 212.5632 298.8254 15.23576918 64320
GOMX-4B
1 43196U 18015E   19089.92333619  .00000382  00000-0  18759-4 0  9998
2 43196  97.3795 218.6616 0017701 225.8222 134.1529 15.23845462 64199
GOMX-4A
1 43197U 18015F   19090.71737488  .00000404  00000-0  19586-4 0  9994
2 43197  97.3784 219.4581 0017807 222.4149 245.0599 15.23944214 64325
SHAONIAN XING
1 43199U 18015H   19090.19399693  .00001474  00000-0  62656-4 0  9994
2 43199  97.3638 218.3147 0016023 221.2964 138.7063 15.24519466 64256
NUSAT-5 (MARYAM)
1 43204U 18015K   19090.82373799  .00001172  00000-0  51507-4 0  9998
2 43204  97.3823 219.5812 0016319 215.9015 298.4757 15.23773114 63924
BEIDOU-3 M5
1 43207U 18018A   19089.30621917 -.00000018  00000-0  00000+0 0  9999
2 43207  55.0490 151.3116 0007276 317.3833  42.6251  1.86231657  7656
BEIDOU-3 M6
1 43208U 18018B   19088.83603038 -.00000023  00000-0  00000-0 0  9998
2 43208  55.0480 151.3343 0009292 291.9875  67.9764  1.86231793  7640
PAZ
1 43215U 18020A   19090.85912332 -.00000100  00000-0 -15515-5 0  9993
2 43215  97.4473  98.9587 0001870  87.4267  32.0462 15.19146982 61074
TINTIN A
1 43216U 18020B   19090.90197668  .00001225  00000-0  60222-4 0  9998
2 43216  97.4547  99.7536 0011430 318.5895  41.4472 15.19876761 61090
TINTIN B
1 43217U 18020C   19090.89580314  .00001213  00000-0  59599-4 0  9993
2 43217  97.4616 100.1401 0010621 316.4584  43.5811 15.19927497 61092
GOES 17
1 43226U 18022A   19090.53369316  .00000082  00000-0  00000+0 0  9994
2 43226   0.0046 300.8299 0003142  91.9488 210.7414  1.00272457  4011
HISPASAT 30W-6
1 43228U 18023A   19090.41156293 -.00000232  00000-0  00000+0 0  9990
2 43228   0.0587  34.1994 0005807 354.9054 277.5149  1.00272276  4074
PODSAT
1 43229U 18023B   19090.76718215  .00043974 -21338-6  38732-3 0  9997
2 43229  26.8592 155.8037 6093248 291.1465  16.1951  4.00891454 23310
O3B FM15
1 43231U 18024A   19089.73237637 -.00000033  00000-0  00000-0 0  9990
2 43231   0.0424  15.6836 0002741 355.3857 348.9337  5.00115494 19325
O3B FM16
1 43232U 18024B   19089.58205287 -.00000033  00000-0  00000-0 0  9990
2 43232   0.0388  18.5417 0003080 348.0734 353.3859  5.00116063 19324
O3B FM14
1 43233U 18024C   19089.83144942 -.00000032  00000-0  00000-0 0  9998
2 43233   0.0373  18.8651 0003086 352.2057 348.9330  5.00115562 19331
O3B FM13
1 43234U 18024D   19090.64813135 -.00000031  00000-0  00000+0 0  9995
2 43234   0.0283   1.6747 0005301  12.3742 345.9631  5.00113054 19374
LKW-4
1 43236U 18025A   19090.82550209  .00000699  00000-0  32233-4 0  9995
2 43236  97.3643 209.1180 0010735  49.2467  67.5222 15.23436972 57784
COSMOS 2525
1 43243U 18028A   19090.66151869  .00057310  30982-5  13046-3 0  9996
2 43243  96.5302 144.4761 0001330  99.1357 261.0043 15.97618280 58490
BEIDOU-3 M7
1 43245U 18029A   19090.54389690 -.00000097  00000-0  00000+0 0  9997
2 43245  55.1890  30.6263 0002359 304.7697 330.1423  1.86232738  6825
BEIDOU-3 M8
1 43246U 18029B   19089.93247712 -.00000098  00000-0  10000-3 0  9993
2 43246  55.1852  30.6798 0005997 322.2942 308.2103  1.86232946  6806
IRIDIUM 144
1 43249U 18030A   19090.56202419  .00000087  00000-0  23906-4 0  9991
2 43249  86.3946 311.4400 0001637  88.4170 271.7214 14.34219321 52537
IRIDIUM 149
1 43250U 18030B   19090.56836283  .00000071  00000-0  18392-4 0  9991
2 43250  86.3945 311.4324 0001618  96.5085 263.6295 14.34218599 52532
IRIDIUM 157
1 43251U 18030C   19090.58741025  .00000085  00000-0  23334-4 0  9990
2 43251  86.3947 311.4189 0002636  86.5297 273.6200 14.34218302 52516
IRIDIUM 140
1 43252U 18030D   19090.60641894  .00000081  00000-0  21801-4 0  9990
2 43252  86.3947 311.4245 0000791  87.1983 272.9303 14.34219293 52571
IRIDIUM 145
1 43253U 18030E   19090.59373320  .00000051  00000-0  11195-4 0  9997
2 43253  86.3947 311.4133 0001803 136.3474 223.7864 14.34217648 52506
IRIDIUM 146
1 43254U 18030F   19090.57470832  .00000068  00000-0  17174-4 0  9993
2 43254  86.3947 311.4389 0001967 101.0217 259.1200 14.34218712 52516
IRIDIUM 148
1 43255U 18030G   19090.54298463  .00000075  00000-0  19844-4 0  9993
2 43255  86.3948 311.4577 0002335  93.6334 266.5129 14.34217570 52550
IRIDIUM 142
1 43256U 18030H   19090.58105540  .00000082  00000-0  22134-4 0  9995
2 43256  86.3945 311.4284 0002081  90.1126 270.0309 14.34219273 52510
IRIDIUM 150
1 43257U 18030J   19090.54933895  .00000066  00000-0  16653-4 0  9995
2 43257  86.3948 311.4731 0001910  87.7541 272.3873 14.34217482 52559
IRIDIUM 143
1 43258U 18030K   19090.60006714  .00000056  00000-0  12950-4 0  9999
2 43258  86.3951 311.4348 0001695 111.2842 248.8535 14.34220017 52501
GAOFEN 1-02
1 43259U 18031A   19090.81871062  .00000052  00000-0  14808-4 0  9990
2 43259  98.0004 169.2031 0004862 158.8403 201.2995 14.76423715 53968
